GLOBALSTAR M024 [-]     
1 25883U 99043A   23225.78913921 -.00000125  00000+0 -21489-2 0  9990
2 25883  52.0012 100.0185 0002060  62.7326  12.9944 11.10153587 40103
GLOBALSTAR M027 [-]     
1 25884U 99043B   23223.27574706 -.00000054  00000+0  35457-3 0  9998
2 25884  52.0190 164.5311 0021661 340.2513  19.7440 11.04366223 66602
GLOBALSTAR M054 [-]     
1 25885U 99043C   23226.47997035 -.00000065  00000+0  16247-3 0  9996
2 25885  52.0149  37.5729 0005359  86.0600 302.8841 11.39203865 42714
GLOBALSTAR M053 [-]     
1 25886U 99043D   23222.75883469 -.00000056  00000+0  38026-3 0  9998
2 25886  52.0005 316.0652 0003178  23.5664 147.4301 11.27649889 43272
GLOBALSTAR M058 [-]     
1 25907U 99049A   23226.11985110 -.00000050  00000+0  45721-3 0  9992
2 25907  51.9935 106.3842 0002953  52.4616 307.6487 11.93163998 72402
GLOBALSTAR M050 [-]     
1 25908U 99049B   23225.61464201 -.00000172  00000+0 -94507-3 0  9992
2 25908  51.9975 165.7294 0008877 127.1025 286.0041 12.07420967 71551
GLOBALSTAR M033 [-]     
1 25909U 99049C   23226.86468296 -.00000123  00000+0 -29711-3 0  9990
2 25909  51.9917  80.5678 0011572 339.0725  20.9647 12.20259815 86386
GLOBALSTAR M055 [-]     
1 25910U 99049D   23225.99559206 -.00000076  00000+0  15791-3 0  9996
2 25910  52.0013 126.5190 0006603 169.2903 190.8090 12.29385830 85707
